ONEWEB-0258             
1 48976U 21060K   24217.63961642  .00000070  00000+0  14874-3 0  9999
2 48976  87.9133   4.4871 0001790  97.3586 262.7749 13.16593291149917
ONEWEB-0259             
1 48977U 21060L   24217.40528590  .00000128  00000+0  30143-3 0  9997
2 48977  87.9132   4.5183 0001590 101.2196 258.9114 13.16593990149913
ONEWEB-0260             
1 48978U 21060M   24217.39658856  .00000153  00000+0  36636-3 0  9996
2 48978  87.9132   4.5490 0002079  79.2884 280.8481 13.16593993149897
ONEWEB-0261             
1 48979U 21060N   24217.44170116 -.00000004  00000+0 -44703-4 0  9993
2 48979  87.9134   4.5346 0001349  80.1377 279.9906 13.16595320149951
ONEWEB-0262             
1 48980U 21060P   24217.65068312  .00000130  00000+0  30686-3 0  9994
2 48980  87.9133   4.4562 0001371 103.8852 256.2431 13.16597095149948
ONEWEB-0263             
1 48981U 21060Q   24217.45437141  .00000044  00000+0  82569-4 0  9995
2 48981  87.9136   4.5129 0001318  90.8356 269.2926 13.16595518149881
ONEWEB-0264             
1 48982U 21060R   24217.64356267  .00000110  00000+0  25455-3 0  9990
2 48982  87.9135   4.4865 0001745  94.1605 265.9725 13.16593365149917
ONEWEB-0266             
1 48984U 21060T   24217.43695655  .00000012  00000+0 -34079-5 0  9992
2 48984  87.9131   4.5034 0001810  98.3168 261.8169 13.16595095149871
